{"type": "FeatureCollection", "features": [ {"type": "Feature", "properties": {"norad_id": 39155, "name": "COSMOS 2485 (747)", "group": "glo-ops", "lat": -59.27485553227102, "lon": 29.373333247967075, "alt_km": 19104.649523148408, "timestamp": "2025-12-09T16:56:36.835836+00:00", "meta": {"OBJECT_NAME": "COSMOS 2485 (747)", "OBJECT_ID": "2013-019A", "EPOCH": "2025-12-09T07:54:23.489856", "MEAN_MOTION": 2.13102865, "ECCENTRICITY": 0.0024552, "INCLINATION": 65.3117, "RA_OF_ASC_NODE": 79.9821, "ARG_OF_PERICENTER": 229.1035, "MEAN_ANOMALY": 130.7002, "EPHEMERIS_TYPE": 0, "CLASSIFICATION_TYPE": "U", "NORAD_CAT_ID": 39155, "ELEMENT_SET_NO": 999, "REV_AT_EPOCH": 9823, "BSTAR": 0, "MEAN_MOTION_DOT": -1.3e-07, "MEAN_MOTION_DDOT": 0}, "tle": {"line1": "1 39155U 13019A   25343.32943854 -.00000013  00000+0  00000+0 0  9995", "line2": "2 39155  65.3117  79.9821 0024552 229.1035 130.7002  2.13102865 98237"}}, "geometry": {"type": "Point", "coordinates": [29.373333247967075, -59.27485553227102]}}, {"type": "Feature", "properties": {"norad_id": 39620, "name": "COSMOS 2492 (754)", "group": "glo-ops", "lat": -35.29615437157059, "lon": -58.548498560972114, "alt_km": 19098.638401554057, "timestamp": "2025-12-09T16:56:36.835860+00:00", "meta": {"OBJECT_NAME": "COSMOS 2492 (754)", "OBJECT_ID": "2014-012A", "EPOCH": "2025-12-09T06:54:46.186848", "MEAN_MOTION": 2.13102988, "ECCENTRICITY": 0.0014208, "INCLINATION": 65.4097, "RA_OF_ASC_NODE": 320.3884, "ARG_OF_PERICENTER": 310.9979, "MEAN_ANOMALY": 48.8757, "EPHEMERIS_TYPE": 0, "CLASSIFICATION_TYPE": "U", "NORAD_CAT_ID": 39620, "ELEMENT_SET_NO": 999, "REV_AT_EPOCH": 9119, "BSTAR": 0, "MEAN_MOTION_DOT": -4.9e-07, "MEAN_MOTION_DDOT": 0}, "tle": {"line1": "1 39620U 14012A   25343.28803457 -.00000049  00000+0  00000+0 0  9994", "line2": "2 39620  65.4097 320.3884 0014208 310.9979  48.8757  2.13102988 91197"}}, "geometry": {"type": "Point", "coordinates": [-58.548498560972114, -35.29615437157059]}}, {"type": "Feature", "properties": {"norad_id": 40001, "name": "COSMOS 2500 (755)", "group": "glo-ops", "lat": -7.669896040646863, "lon": 143.66972523509085, "alt_km": 19112.894082607192, "timestamp": "2025-12-09T16:56:36.835873+00:00", "meta": {"OBJECT_NAME": "COSMOS 2500 (755)", "OBJECT_ID": "2014-032A", "EPOCH": "2025-12-08T23:47:04.888320", "MEAN_MOTION": 2.13105786, "ECCENTRICITY": 0.00083334, "INCLINATION": 65.3455, "RA_OF_ASC_NODE": 320.1603, "ARG_OF_PERICENTER": 219.1705, "MEAN_ANOMALY": 140.7654, "EPHEMERIS_TYPE": 0, "CLASSIFICATION_TYPE": "U", "NORAD_CAT_ID": 40001, "ELEMENT_SET_NO": 999, "REV_AT_EPOCH": 8940, "BSTAR": 0, "MEAN_MOTION_DOT": -4.9e-07, "MEAN_MOTION_DDOT": 0}, "tle": {"line1": "1 40001U 14032A   25342.99102880 -.00000049  00000+0  00000+0 0  9990", "line2": "2 40001  65.3455 320.1603 0008333 219.1705 140.7654  2.13105786 89403"}}, "geometry": {"type": "Point", "coordinates": [143.66972523509085, -7.669896040646863]}}, {"type": "Feature", "properties": {"norad_id": 40315, "name": "COSMOS 2501 (702K)", "group": "glo-ops", "lat": -9.575453116920842, "lon": -167.870203093845, "alt_km": 19173.650649948762, "timestamp": "2025-12-09T16:56:36.835885+00:00", "meta": {"OBJECT_NAME": "COSMOS 2501 (702K)", "OBJECT_ID": "2014-075A", "EPOCH": "2025-12-07T20:13:51.362112", "MEAN_MOTION": 2.13101338, "ECCENTRICITY": 0.00201356, "INCLINATION": 63.6139, "RA_OF_ASC_NODE": 196.9947, "ARG_OF_PERICENTER": 204.4913, "MEAN_ANOMALY": 155.4908, "EPHEMERIS_TYPE": 0, "CLASSIFICATION_TYPE": "U", "NORAD_CAT_ID": 40315, "ELEMENT_SET_NO": 999, "REV_AT_EPOCH": 8577, "BSTAR": 0, "MEAN_MOTION_DOT": 5.4e-07, "MEAN_MOTION_DDOT": 0}, "tle": {"line1": "1 40315U 14075A   25341.84295558  .00000054  00000+0  00000+0 0  9998", "line2": "2 40315  63.6139 196.9947 0020135 204.4913 155.4908  2.13101338 85773"}}, "geometry": {"type": "Point", "coordinates": [-167.870203093845, -9.575453116920842]}}, {"type": "Feature", "properties": {"norad_id": 41330, "name": "COSMOS 2514 (751)", "group": "glo-ops", "lat": 1.3977890393674632, "lon": -39.85582783830402, "alt_km": 19154.603597162564, "timestamp": "2025-12-09T16:56:36.835896+00:00", "meta": {"OBJECT_NAME": "COSMOS 2514 (751)", "OBJECT_ID": "2016-008A", "EPOCH": "2025-12-09T05:37:58.795392", "MEAN_MOTION": 2.13102549, "ECCENTRICITY": 0.0012235, "INCLINATION": 65.1358, "RA_OF_ASC_NODE": 319.5239, "ARG_OF_PERICENTER": 220.0374, "MEAN_ANOMALY": 139.8687, "EPHEMERIS_TYPE": 0, "CLASSIFICATION_TYPE": "U", "NORAD_CAT_ID": 41330, "ELEMENT_SET_NO": 999, "REV_AT_EPOCH": 7657, "BSTAR": 0, "MEAN_MOTION_DOT": -4.9e-07, "MEAN_MOTION_DDOT": 0}, "tle": {"line1": "1 41330U 16008A   25343.23470828 -.00000049  00000+0  00000+0 0  9999", "line2": "2 41330  65.1358 319.5239 0012235 220.0374 139.8687  2.13102549 76578"}}, "geometry": {"type": "Point", "coordinates": [-39.85582783830402, 1.3977890393674632]}}, {"type": "Feature", "properties": {"norad_id": 42939, "name": "COSMOS 2522 (752)", "group": "glo-ops", "lat": 47.10506295329214, "lon": -13.234906877606521, "alt_km": 19127.273712450133, "timestamp": "2025-12-09T16:56:36.835908+00:00", "meta": {"OBJECT_NAME": "COSMOS 2522 (752)", "OBJECT_ID": "2017-055A", "EPOCH": "2025-12-08T03:13:49.063296", "MEAN_MOTION": 2.13101881, "ECCENTRICITY": 0.00064484, "INCLINATION": 64.0758, "RA_OF_ASC_NODE": 198.386, "ARG_OF_PERICENTER": 225.1717, "MEAN_ANOMALY": 134.8539, "EPHEMERIS_TYPE": 0, "CLASSIFICATION_TYPE": "U", "NORAD_CAT_ID": 42939, "ELEMENT_SET_NO": 999, "REV_AT_EPOCH": 6390, "BSTAR": 0, "MEAN_MOTION_DOT": 5.1e-07, "MEAN_MOTION_DDOT": 0}, "tle": {"line1": "1 42939U 17055A   25342.13459564  .00000051  00000+0  00000+0 0  9992", "line2": "2 42939  64.0758 198.3860 0006448 225.1717 134.8539  2.13101881 63907"}}, "geometry": {"type": "Point", "coordinates": [-13.234906877606521, 47.10506295329214]}}, {"type": "Feature", "properties": {"norad_id": 43508, "name": "COSMOS 2527 (756)", "group": "glo-ops", "lat": 22.15909198089152, "lon": -110.46183307139574, "alt_km": 19119.571394838084, "timestamp": "2025-12-09T16:56:36.835919+00:00", "meta": {"OBJECT_NAME": "COSMOS 2527 (756)", "OBJECT_ID": "2018-053A", "EPOCH": "2025-12-09T12:04:31.346976", "MEAN_MOTION": 2.13102032, "ECCENTRICITY": 0.0008576, "INCLINATION": 65.4709, "RA_OF_ASC_NODE": 80.2399, "ARG_OF_PERICENTER": 224.3157, "MEAN_ANOMALY": 135.632, "EPHEMERIS_TYPE": 0, "CLASSIFICATION_TYPE": "U", "NORAD_CAT_ID": 43508, "ELEMENT_SET_NO": 999, "REV_AT_EPOCH": 5823, "BSTAR": 0, "MEAN_MOTION_DOT": -1.3e-07, "MEAN_MOTION_DDOT": 0}, "tle": {"line1": "1 43508U 18053A   25343.50314059 -.00000013  00000+0  00000+0 0  9994", "line2": "2 43508  65.4709  80.2399 0008576 224.3157 135.6320  2.13102032 58236"}}, "geometry": {"type": "Point", "coordinates": [-110.46183307139574, 22.15909198089152]}}, {"type": "Feature", "properties": {"norad_id": 43687, "name": "COSMOS 2529 (757)", "group": "glo-ops", "lat": 62.78665175446864, "lon": -91.46998396592568, "alt_km": 19141.596927544815, "timestamp": "2025-12-09T16:56:36.835931+00:00", "meta": {"OBJECT_NAME": "COSMOS 2529 (757)", "OBJECT_ID": "2018-086A", "EPOCH": "2025-12-09T03:09:05.938272", "MEAN_MOTION": 2.13101866, "ECCENTRICITY": 0.0007294, "INCLINATION": 64.2918, "RA_OF_ASC_NODE": 199.0103, "ARG_OF_PERICENTER": 254.195, "MEAN_ANOMALY": 105.7985, "EPHEMERIS_TYPE": 0, "CLASSIFICATION_TYPE": "U", "NORAD_CAT_ID": 43687, "ELEMENT_SET_NO": 999, "REV_AT_EPOCH": 5523, "BSTAR": 0, "MEAN_MOTION_DOT": 4.4e-07, "MEAN_MOTION_DDOT": 0}, "tle": {"line1": "1 43687U 18086A   25343.13131873  .00000044  00000+0  00000+0 0  9991", "line2": "2 43687  64.2918 199.0103 0007294 254.1950 105.7985  2.13101866 55239"}}, "geometry": {"type": "Point", "coordinates": [-91.46998396592568, 62.78665175446864]}}, {"type": "Feature", "properties": {"norad_id": 44299, "name": "COSMOS 2534 (758)", "group": "glo-ops", "lat": -31.27438378223975, "lon": 35.9568965959026, "alt_km": 19125.544764813727, "timestamp": "2025-12-09T16:56:36.835942+00:00", "meta": {"OBJECT_NAME": "COSMOS 2534 (758)", "OBJECT_ID": "2019-030A", "EPOCH": "2025-12-09T05:29:56.087232", "MEAN_MOTION": 2.13102103, "ECCENTRICITY": 0.00090056, "INCLINATION": 64.3653, "RA_OF_ASC_NODE": 199.0114, "ARG_OF_PERICENTER": 283.3894, "MEAN_ANOMALY": 286.0531, "EPHEMERIS_TYPE": 0, "CLASSIFICATION_TYPE": "U", "NORAD_CAT_ID": 44299, "ELEMENT_SET_NO": 999, "REV_AT_EPOCH": 5087, "BSTAR": 0, "MEAN_MOTION_DOT": 4.4e-07, "MEAN_MOTION_DDOT": 0}, "tle": {"line1": "1 44299U 19030A   25343.22912138  .00000044  00000+0  00000+0 0  9992", "line2": "2 44299  64.3653 199.0114 0009005 283.3894 286.0531  2.13102103 50871"}}, "geometry": {"type": "Point", "coordinates": [35.9568965959026, -31.27438378223975]}}, {"type": "Feature", "properties": {"norad_id": 44850, "name": "COSMOS 2544 (759)", "group": "glo-ops", "lat": -16.274336343599543, "lon": -92.2807276213876, "alt_km": 19110.647155117716, "timestamp": "2025-12-09T16:56:36.835953+00:00", "meta": {"OBJECT_NAME": "COSMOS 2544 (759)", "OBJECT_ID": "2019-088A", "EPOCH": "2025-12-09T10:44:40.842816", "MEAN_MOTION": 2.13101756, "ECCENTRICITY": 0.0013649, "INCLINATION": 65.4583, "RA_OF_ASC_NODE": 80.0686, "ARG_OF_PERICENTER": 249.1242, "MEAN_ANOMALY": 110.7462, "EPHEMERIS_TYPE": 0, "CLASSIFICATION_TYPE": "U", "NORAD_CAT_ID": 44850, "ELEMENT_SET_NO": 999, "REV_AT_EPOCH": 4667, "BSTAR": 0, "MEAN_MOTION_DOT": -1.3e-07, "MEAN_MOTION_DDOT": 0}, "tle": {"line1": "1 44850U 19088A   25343.44769494 -.00000013  00000+0  00000+0 0  9994", "line2": "2 44850  65.4583  80.0686 0013649 249.1242 110.7462  2.13101756 46679"}}, "geometry": {"type": "Point", "coordinates": [-92.2807276213876, -16.274336343599543]}}]}